HAWK-11C                
1 62381U 24247E   26068.51221537  .00009223  00000+0  33290-3 0  9992
2 62381  45.0045 114.8762 0005900 329.7040  30.3502 15.28848020 67743
STARLINK-32797          
1 62843U 25019Q   26068.44081529  .00022869  00000+0  83783-3 0  9993
2 62843  43.0038  90.3174 0001649 276.4887  83.5777 15.27586348 62216
